{
  "norad_id": 59384,
  "name": "STARLINK-31715",
  "history": [
    {
      "epoch": "2026-03-28T12:08:46.520736Z",
      "apogee_km": 476.4850477072414,
      "perigee_km": 473.94108416276686,
      "latitude_deg": 1.60091241608758e-05,
      "longitude_deg": 160.04861075550505,
      "height_km": 476.44972197812314,
      "semi_major_axis_km": 6853.350065935004,
      "eccentricity": 0.0001856,
      "inclination_deg": 53.1608,
      "raan_deg": 168.168,
      "arg_perigee_deg": 105.4678,
      "mean_anomaly_deg": 254.6528,
      "mean_motion_rev_day": 15.30200671
    }
  ]
}